$$SOE
2460721.500000000, A.D. 2025-Feb-15 00:00:00.0000, -2.521869385996561E+08, -2.793372985803961E+08, -2.859340163982219E+07,
2460728.500000000, A.D. 2025-Feb-22 00:00:00.0000, -2.432786762118327E+08, -2.851194639177705E+08, -2.894679357664534E+07,
2460735.500000000, A.D. 2025-Mar-01 00:00:00.0000, -2.341481178715856E+08, -2.906411350655385E+08, -2.927373270147912E+07,
2460742.500000000, A.D. 2025-Mar-08 00:00:00.0000, -2.248009413594817E+08, -2.958939591788557E+08, -2.957358751550582E+07,
2460749.500000000, A.D. 2025-Mar-15 00:00:00.0000, -2.152431117077395E+08, -3.008695467996094E+08, -2.984572834464078E+07,
2460756.500000000, A.D. 2025-Mar-22 00:00:00.0000, -2.054808974270460E+08, -3.055594757595024E+08, -3.008952770790637E+07,
2460763.500000000, A.D. 2025-Mar-29 00:00:00.0000, -1.955208859653472E+08, -3.099552982310507E+08, -3.030436108272302E+07,
2460770.500000000, A.D. 2025-Apr-05 00:00:00.0000, -1.853699980700638E+08, -3.140485478763992E+08, -3.048960784868892E+07,
2460777.500000000, A.D. 2025-Apr-12 00:00:00.0000, -1.750355029712249E+08, -3.178307470830515E+08, -3.064465223313515E+07,
2460784.500000000, A.D. 2025-Apr-19 00:00:00.0000, -1.645250345578809E+08, -3.212934152664605E+08, -3.076888432204153E+07,
2460791.500000000, A.D. 2025-Apr-26 00:00:00.0000, -1.538466082537977E+08, -3.244280785467902E+08, -3.086170118680546E+07,
2460798.500000000, A.D. 2025-May-03 00:00:00.0000, -1.430086384472110E+08, -3.272262808908473E+08, -3.092250814484248E+07,
2460805.500000000, A.D. 2025-May-10 00:00:00.0000, -1.320199564033322E+08, -3.296795968268793E+08, -3.095072016505030E+07,
2460812.500000000, A.D. 2025-May-17 00:00:00.0000, -1.208898285663701E+08, -3.317796458970371E+08, -3.094576343421407E+07,
2460819.500000000, A.D. 2025-May-24 00:00:00.0000, -1.096279750058844E+08, -3.335181090361384E+08, -3.090707711522157E+07,
2460826.500000000, A.D. 2025-May-31 00:00:00.0000, -9.824458750560692E+07, -3.348867467113164E+08, -3.083411532193530E+07,
2460833.500000000, A.D. 2025-Jun-07 00:00:00.0000, -8.675034759912103E+07, -3.358774177701441E+08, -3.072634918784794E+07,
2460840.500000000, A.D. 2025-Jun-14 00:00:00.0000, -7.515644680267218E+07, -3.364820998170798E+08, -3.058326887756437E+07,
2460847.500000000, A.D. 2025-Jun-21 00:00:00.0000, -6.347460768940891E+07, -3.366929145437051E+08, -3.040438593061922E+07,
2460854.500000000, A.D. 2025-Jun-28 00:00:00.0000, -5.171710251146491E+07, -3.365021564076905E+08, -3.018923609085301E+07,
2460861.500000000, A.D. 2025-Jul-05 00:00:00.0000, -3.989677069447296E+07, -3.359023226669319E+08, -2.993738231653740E+07,
2460868.500000000, A.D. 2025-Jul-12 00:00:00.0000, -2.802703617471604E+07, -3.348861457365342E+08, -2.964841793825859E+07,
2460875.500000000, A.D. 2025-Jul-19 00:00:00.0000, -1.612192413839285E+07, -3.334466286021398E+08, -2.932197003883885E+07,
2460882.500000000, A.D. 2025-Jul-26 00:00:00.0000, -4.196076669348998E+06, -3.315770834952525E+08, -2.895770308768590E+07,
2460889.500000000, A.D. 2025-Aug-02 00:00:00.0000, 7.735233081195161E+06, -3.292711739433509E+08, -2.855532284033556E+07,
2460896.500000000, A.D. 2025-Aug-09 00:00:00.0000, 1.965608858867295E+07, -3.265229603264462E+08, -2.811458051088279E+07,
2460903.500000000, A.D. 2025-Aug-16 00:00:00.0000, 3.154991999406188E+07, -3.233269490995071E+08, -2.763527723118195E+07,
2460910.500000000, A.D. 2025-Aug-23 00:00:00.0000, 4.339949722598740E+07, -3.196781457317058E+08, -2.711726882033581E+07,
2460917.500000000, A.D. 2025-Aug-30 00:00:00.0000, 5.518692702354439E+07, -3.155721106774919E+08, -2.656047082996188E+07,
2460924.500000000, A.D. 2025-Sep-06 00:00:00.0000, 6.689365297362063E+07, -3.110050173603137E+08, -2.596486364213210E+07,
2460931.500000000, A.D. 2025-Sep-13 00:00:00.0000, 7.850045746661180E+07, -3.059737145743042E+08, -2.533049765276141E+07,
2460938.500000000, A.D. 2025-Sep-20 00:00:00.0000, 8.998746945998193E+07, -3.004757948052634E+08, -2.465749895216377E+07,
2460945.500000000, A.D. 2025-Sep-27 00:00:00.0000, 1.013341797597529E+08, -2.945096651440405E+08, -2.394607531582603E+07,
2460952.500000000, A.D. 2025-Oct-04 00:00:00.0000, 1.125194624812946E+08, -2.880746199502476E+08, -2.319652223832603E+07,
2460959.500000000, A.D. 2025-Oct-11 00:00:00.0000, 1.235216030123642E+08, -2.811709158045905E+08, -2.240922900598215E+07,
2460966.500000000, A.D. 2025-Oct-18 00:00:00.0000, 1.343183334661670E+08, -2.737998485071867E+08, -2.158468479963723E+07,
2460973.500000000, A.D. 2025-Oct-25 00:00:00.0000, 1.448868764600512E+08, -2.659638314711208E+08, -2.072348477186717E+07,
2460980.500000000, A.D. 2025-Nov-01 00:00:00.0000, 1.552039979280711E+08, -2.576664747220984E+08, -1.982633602218454E+07,
2460987.500000000, A.D. 2025-Nov-08 00:00:00.0000, 1.652460696231475E+08, -2.489126636177432E+08, -1.889406338586043E+07,
2460994.500000000, A.D. 2025-Nov-15 00:00:00.0000, 1.749891420099169E+08, -2.397086362800906E+08, -1.792761495348623E+07,
2461001.500000000, A.D. 2025-Nov-22 00:00:00.0000, 1.844090284086667E+08, -2.300620583146375E+08, -1.692806722797030E+07,
2461008.500000000, A.D. 2025-Nov-29 00:00:00.0000, 1.934814005625150E+08, -2.199820923359901E+08, -1.589662968922459E+07,
2461015.500000000, A.D. 2025-Dec-06 00:00:00.0000, 2.021818935073988E+08, -2.094794609534048E+08, -1.483464843654527E+07,
2461022.500000000, A.D. 2025-Dec-13 00:00:00.0000, 2.104862201359296E+08, -1.985665049764035E+08, -1.374360908465825E+07,
2461029.500000000, A.D. 2025-Dec-20 00:00:00.0000, 2.183702986787392E+08, -1.872572341088157E+08, -1.262513900672030E+07,
2461036.500000000, A.D. 2025-Dec-27 00:00:00.0000, 2.258103915010479E+08, -1.755673657714943E+08, -1.148100846934015E+07,
2461043.500000000, A.D. 2026-Jan-03 00:00:00.0000, 2.327832529348724E+08, -1.635143508772359E+08, -1.031313043396616E+07,
2461050.500000000, A.D. 2026-Jan-10 00:00:00.0000, 2.392662851217462E+08, -1.511173854662869E+08, -9.123558955229416E+06,
2461057.500000000, A.D. 2026-Jan-17 00:00:00.0000, 2.452377006364182E+08, -1.383974066019093E+08, -7.914486082311265E+06,
2461064.500000000, A.D. 2026-Jan-24 00:00:00.0000, 2.506766901766620E+08, -1.253770709544621E+08, -6.688237163357548E+06,
2461071.500000000, A.D. 2026-Jan-31 00:00:00.0000, 2.555635932251428E+08, -1.120807147459739E+08, -5.447264473350927E+06,
2461078.500000000, A.D. 2026-Feb-07 00:00:00.0000, 2.598800693159707E+08, -9.853429406073913E+07, -4.194139122405797E+06,
2461085.500000000, A.D. 2026-Feb-14 00:00:00.0000, 2.636092674444456E+08, -8.476530482654713E+07, -2.931541251458652E+06,
2461092.500000000, A.D. 2026-Feb-21 00:00:00.0000, 2.667359910729973E+08, -7.080268156566250E+07, -1.662248527409993E+06,
2461099.500000000, A.D. 2026-Feb-28 00:00:00.0000, 2.692468545989199E+08, -5.667667388900372E+07, -3.891228108297400E+05,
2461106.500000000, A.D. 2026-Mar-07 00:00:00.0000, 2.711304261456072E+08, -4.241870332532848E+07, 8.849049216381665E+05,
2461113.500000000, A.D. 2026-Mar-14 00:00:00.0000, 2.723773564160981E+08, -2.806120399757559E+07, 2.156850799461097E+06,
2461120.500000000, A.D. 2026-Mar-21 00:00:00.0000, 2.729804924963794E+08, -1.363744596701153E+07, 3.423695301818481E+06,
2461127.500000000, A.D. 2026-Mar-28 00:00:00.0000, 2.729349719459944E+08, 8.186575467543020E+05, 4.682401555032996E+06,
2461134.500000000, A.D. 2026-Apr-04 00:00:00.0000, 2.722382942603490E+08, 1.527275540223753E+07, 5.929934388191691E+06,
2461141.500000000, A.D. 2026-Apr-11 00:00:00.0000, 2.708903681084150E+08, 2.969027277092966E+07, 7.163279791488938E+06,
2461148.500000000, A.D. 2026-Apr-18 00:00:00.0000, 2.688935331625706E+08, 4.403663095260289E+07, 8.379464441993987E+06,
2461155.500000000, A.D. 2026-Apr-25 00:00:00.0000, 2.662525558135761E+08, 5.827746916181043E+07, 9.575574965023227E+06,
2461162.500000000, A.D. 2026-May-02 00:00:00.0000, 2.629745986750270E+08, 7.237886453389436E+07, 1.074877659934373E+07,
2461169.500000000, A.D. 2026-May-09 00:00:00.0000, 2.590691645134903E+08, 8.630754658524196E+07, 1.189633093601673E+07,
2461176.500000000, A.D. 2026-May-16 00:00:00.0000, 2.545480161130260E+08, 1.000311027066740E+08, 1.301561241662756E+07,
2461183.500000000, A.D. 2026-May-23 00:00:00.0000, 2.494250738166716E+08, 1.135181724064292E+08, 1.410412340872013E+07,
2461190.500000000, A.D. 2026-May-30 00:00:00.0000, 2.437162908604025E+08, 1.267386276957335E+08, 1.515950785680059E+07,
2461197.500000000, A.D. 2026-Jun-06 00:00:00.0000, 2.374395088334645E+08, 1.396637338674764E+08, 1.617956310218439E+07,
2461204.500000000, A.D. 2026-Jun-13 00:00:00.0000, 2.306142998965324E+08, 1.522662888743519E+08, 1.716224942809023E+07,
2461211.500000000, A.D. 2026-Jun-20 00:00:00.0000, 2.232617984127038E+08, 1.645207427888514E+08, 1.810569754114642E+07,
2461218.500000000, A.D. 2026-Jun-27 00:00:00.0000, 2.154045235588355E+08, 1.764032961292412E+08, 1.900821409591183E+07,
2461225.500000000, A.D. 2026-Jul-04 00:00:00.0000, 2.070661961843947E+08, 1.878919759493810E+08, 1.986828522571136E+07,
2461232.500000000, A.D. 2026-Jul-11 00:00:00.0000, 1.982715533359074E+08, 1.989666897504984E+08, 2.068457811538759E+07,
2461239.500000000, A.D. 2026-Jul-18 00:00:00.0000, 1.890461635140558E+08, 2.096092579006767E+08, 2.145594071675622E+07,
2461246.500000000, A.D. 2026-Jul-25 00:00:00.0000, 1.794162454021889E+08, 2.198034256336026E+08, 2.218139974304292E+07,
2461253.500000000, A.D. 2026-Aug-01 00:00:00.0000, 1.694084925154756E+08, 2.295348559859908E+08, 2.286015709649047E+07,
2461260.500000000, A.D. 2026-Aug-08 00:00:00.0000, 1.590499060384330E+08, 2.387911053103583E+08, 2.349158488650088E+07,
2461267.500000000, A.D. 2026-Aug-15 00:00:00.0000, 1.483676379552046E+08, 2.475615836767392E+08, 2.407521922783126E+07,
2461274.500000000, A.D. 2026-Aug-22 00:00:00.0000, 1.373888450347223E+08, 2.558375033547542E+08, 2.461075318151812E+07,
2461281.500000000, A.D. 2026-Aug-29 00:00:00.0000, 1.261405523280576E+08, 2.636118160086018E+08, 2.509802912610386E+07,
2461288.500000000, A.D. 2026-Sep-05 00:00:00.0000, 1.146495289185301E+08, 2.708791377586647E+08, 2.553703031791133E+07,
$$EOE